SL-16 R/B               
1 19650U 88102B   25162.80321355  .00000279  00000+0  16509-3 0  9994
2 19650  71.0002   1.4438 0012403  59.1329 301.1012 14.16104738888548
INTERCOSMOS 24          
1 20261U 89080A   25162.80292257  .00000735  00000+0  21423-3 0  9996
2 20261  82.6055 280.5468 1190052 201.1088 153.6695 12.59023345632707
SL-14 R/B               
1 20262U 89080C   25162.78385531  .00000314  00000+0  84786-4 0  9997
2 20262  82.5940 347.1424 1231783  83.9508 290.0226 12.50304610626293
DELTA 1 R/B             
1 20323U 89089B   25163.13963688  .00000251  00000+0  71542-4 0  9995
2 20323  97.1049  48.2070 0067697 256.8961 102.4676 14.50395804877046
ARIANE 40 R/B           
1 20443U 90005H   25163.19229473  .00000245  00000+0  91883-4 0  9994
2 20443  98.3459 226.2993 0008970 302.1101  57.9216 14.39637722854144
DELTA 2 R/B(1)          
1 20453U 90008B   25162.91765015  .00021940  00000+0  49644-3 0  9996
2 20453  35.6088 114.7903 0141394 314.3150  44.6059 15.32315423884311
COSMOS 2058             
1 20465U 90010A   25162.81010059  .00002413  00000+0  15136-3 0  9995
2 20465  82.4760 313.5964 0010030 183.7328 176.3828 15.08849210901365
SL-14 R/B               
1 20466U 90010B   25162.72367211  .00000303  00000+0  33922-4 0  9991
2 20466  82.5015 161.8084 0021437 111.3193 249.0313 14.83256955888313
SL-14 R/B               
1 20511U 90018B   25162.81916703  .00000318  00000+0  37233-4 0  9991
2 20511  82.5210 116.2270 0014823 262.9907  96.9621 14.81843372882463
HST                     
1 20580U 90037B   25162.87683047  .00004542  00000+0  16727-3 0  9993
2 20580  28.4685  80.9077 0002578  36.3649 323.7121 15.25263214731870
SL-16 R/B               
1 20625U 90046B   25162.94281643 -.00000234  00000+0 -96426-4 0  9998
2 20625  70.9971 146.5048 0014533 346.9753  13.0992 14.14963168810096
COSMOS 2084             
1 20663U 90055A   25162.42642274  .00001580  00000+0  12514-3 0  9992
2 20663  62.7877 179.2657 0061810 153.9846 206.4383 15.03661661895514
SL-6 R/B(2)             
1 20666U 90055D   25163.20736071  .00001508  00000+0  12875-3 0  9991
2 20666  62.7828  92.4312 0027275 190.2847 169.7697 15.02016438897010
SL-8 R/B                
1 20775U 90078B   25162.87671023  .00007877  00000+0  26220-3 0  9998
2 20775  82.9070 132.6680 0401993 197.1248 161.6076 14.78236460769159
SL-8 R/B                
1 21088U 91006B   25162.68792579  .00000114  00000+0  99042-4 0  9997
2 21088  82.9428  11.6478 0023848  75.1692 352.1218 13.77456617726763
OKEAN-3                 
1 21397U 91039A   25162.70668191  .00001647  00000+0  12093-3 0  9993
2 21397  82.5184 238.9247 0015302 167.6496 192.5108 15.02754226824315
COSMOS 2151             
1 21422U 91042A   25162.47616170  .00001154  00000+0  93427-4 0  9994
2 21422  82.4968 344.9494 0011101 254.6127 105.3870 14.98832722843700
SL-14 R/B               
1 21423U 91042B   25162.81657460  .00000331  00000+0  39057-4 0  9995
2 21423  82.4926 114.1550 0018434  54.3799 305.9129 14.81541664812964
ERS-1                   
1 21574U 91050A   25162.85743890  .00000186  00000+0  74684-4 0  9991
2 21574  98.7909 169.2464 0030924 286.2750  73.5035 14.39196527776777
ARIANE 40 R/B           
1 21610U 91050F   25163.13582514  .00000240  00000+0  84905-4 0  9996
2 21610  98.2394 219.9152 0003619 153.0713 207.0666 14.42634702780257
INTERCOSMOS 25          
1 21819U 91086A   25162.86530645  .00001279  00000+0  25192-3 0  9998
2 21819  82.6032 113.6556 1490268 340.4309  14.4891 12.11038760463890
SL-8 R/B                
1 21876U 92008B   25162.84655770  .00000095  00000+0  82186-4 0  9993
2 21876  82.9264 109.2058 0034823 168.8314 250.1655 13.75933040672175
SL-8 R/B                
1 21938U 92020B   25162.66271885  .00000126  00000+0  11518-3 0  9992
2 21938  82.9305 355.0479 0028527 336.9725  92.1853 13.75507630663879
USA 81                  
1 21949U 92023A   25162.80773586  .00000134  00000+0  42455-4 0  9992
2 21949  85.0072 287.6824 0002158 113.9132 246.2287 14.32243726 56019
COSMOS 2219             
1 22219U 92076A   25162.87047189 -.00000135  00000+0 -45968-4 0  9996
2 22219  71.0590 224.1764 0020291 255.4032 104.4841 14.14023032680096
SL-16 R/B               
1 22220U 92076B   25162.87409689 -.00000143  00000+0 -47704-4 0  9994
2 22220  71.0009  38.8194 0011860 157.1818 282.3035 14.16804740683473
COSMOS 2221             
1 22236U 92080A   25163.12126738  .00001489  00000+0  13403-3 0  9996
2 22236  82.5039 177.9003 0015353  27.6718 332.5317 14.94871372761407
SL-16 R/B               
1 22285U 92093B   25163.13821998 -.00000228  00000+0 -92333-4 0  9997
2 22285  71.0209 212.2009 0004972 331.0731  29.0116 14.15397677675193
COSMOS 2228             
1 22286U 92094A   25162.43444438  .00001498  00000+0  13174-3 0  9994
2 22286  82.5176 136.6984 0019880 131.3980 228.8954 14.95701886756565
SL-16 R/B               
1 22566U 93016B   25162.79846552 -.00000251  00000+0 -10427-3 0  9998
2 22566  71.0087  64.1132 0009965   2.4195 357.6974 14.15259054663847
COSMOS 2242             
1 22626U 93024A   25162.71030720  .00001267  00000+0  11271-3 0  9992
2 22626  82.5185 165.5587 0018054 132.7332 227.5413 14.95155539739881
SL-16 R/B               
1 22803U 93059B   25162.86296274 -.00000063  00000+0 -74017-5 0  9995
2 22803  70.9896 222.2207 0019418 263.7158  96.1754 14.17173982641420
ARIANE 40 R/B           
1 22830U 93061H   25162.80618333  .00000170  00000+0  78429-4 0  9993
2 22830  98.5268 231.4610 0010817  12.7003 347.4452 14.32662474655310
COSMOS 2278             
1 23087U 94023A   25163.07144661  .00000382  00000+0  22472-3 0  9996
2 23087  71.0543  21.2475 0007068  81.0421 279.1501 14.14299180606792
SL-16 R/B               
1 23088U 94023B   25162.74851050 -.00000284  00000+0 -12199-3 0  9995
2 23088  71.0003 279.8639 0004437 317.5715  42.5064 14.14965771607767
SL-16 R/B               
1 23343U 94074B   25163.14136199  .00000388  00000+0  59138-4 0  9998
2 23343  97.7388 199.4894 0007342  33.3445   2.7369 14.79041081647460
SL-16 R/B               
1 23405U 94077B   25161.84643643 -.00000033  00000+0  77555-5 0  9994
2 23405  70.9823 204.3726 0004436 243.4028 116.6641 14.15522257577760
ARIANE 40+ R/B          
1 23561U 95021B   25162.83940937  .00000216  00000+0  83352-4 0  9996
2 23561  98.4835 232.4399 0005891 225.4283 248.2423 14.39531057580272
SL-16 R/B               
1 23705U 95058B   25163.11194617 -.00000147  00000+0 -51025-4 0  9991
2 23705  71.0220  28.3097 0012554 182.1213 177.9859 14.15447947529867
SL-16 R/B               
1 24298U 96051B   25163.05966192 -.00000161  00000+0 -60576-4 0  9998
2 24298  70.7692  27.9949 0015831 183.0926 177.0098 14.12416192483698
ORBVIEW 2 (SEASTAR)     
1 24883U 97037A   25162.67036636  .00000179  00000+0  78591-4 0  9994
2 24883  98.8256 315.3585 0003136 124.0540 236.0943 14.35251588469596
SL-16 R/B               
1 25400U 98043G   25162.82274308  .00000026  00000+0  29660-4 0  9999
2 25400  98.7878 109.9163 0010951  81.1276 279.1143 14.25972117400381
SL-16 R/B               
1 25407U 98045B   25163.11415016 -.00000040  00000+0  38993-5 0  9991
2 25407  71.0118  30.5668 0005376  73.7953 286.3762 14.16139391389069
ISS (ZARYA)             
1 25544U 98067A   25163.00308306  .00008537  00000+0  15666-3 0  9996
2 25544  51.6380 332.7633 0001398 213.2097 292.0996 15.50132562514352
CZ-4B R/B               
1 25732U 99025C   25162.76194381  .00000050  00000+0  45230-4 0  9991
2 25732  98.6994 207.8591 0037924  45.1092  65.2479 14.18191347349765
OKEAN-O                 
1 25860U 99039A   25163.09096796  .00000493  00000+0  72432-4 0  9991
2 25860  97.9834 220.1191 0001890 103.4625 256.6798 14.79799845394459
SL-16 R/B               
1 25861U 99039B   25163.19902538  .00000502  00000+0  71191-4 0  9995
2 25861  98.0360 217.0613 0016060  57.6803 302.5962 14.81280382396947
DELTA 2 R/B             
1 25876U 99041E   25162.84370441  .00000503  00000+0  11956-3 0  9990
2 25876  51.7666 302.0787 0506305 269.6841  84.6087 14.10733688324781
HELIOS 1B               
1 25977U 99064A   25162.67178030  .00000882  00000+0  10634-3 0  9990
2 25977  98.1959  51.8545 0000917 138.2504 221.8781 14.86476492644982
TERRA                   
1 25994U 99068A   25163.15595441  .00000337  00000+0  78223-4 0  9990
2 25994  97.9981 221.2897 0001581 356.6670  19.6209 14.60706458355701
SL-16 R/B               
1 26070U 00006B   25162.84759358  .00000030  00000+0  39773-4 0  9991
2 26070  71.0032 307.2965 0018413 238.0013 121.9321 14.15778384310221
TITAN 4B R/B            
1 26474U 00047B   25163.19775152  .00002912  00000+0  19748-3 0  9993
2 26474  67.9907  79.5885 0044887 338.6011  21.3258 15.07188376352207
ENVISAT                 
1 27386U 02009A   25162.83928007  .00000056  00000+0  32109-4 0  9999
2 27386  98.3336 118.5604 0001350  90.8751 297.7064 14.38919560220223
IDEFIX & ARIANE 42P R/B 
1 27422U 02021B   25162.81207553  .00000168  00000+0  80560-4 0  9996
2 27422  98.5611 100.1523 0010646 265.6278  94.3688 14.30792975205286
AQUA                    
1 27424U 02022A   25163.14559947  .00000625  00000+0  13639-3 0  9993
2 27424  98.3777 121.4327 0002071  72.9423  16.4848 14.61296872229256
CZ-4B R/B               
1 27432U 02024C   25162.74234469  .00000038  00000+0  42410-4 0  9996
2 27432  98.9232 211.8576 0051201  72.5396  35.9633 14.14485983190932
MIDORI II (ADEOS-II)    
1 27597U 02056A   25162.86113807  .00000222  00000+0  10552-3 0  9994
2 27597  98.7379 115.1744 0002188  76.5073 283.6352 14.29048714171610
H-2A R/B                
1 27601U 02056E   25162.83855833  .00000174  00000+0  76062-4 0  9994
2 27601  98.2788 129.2405 0069223 248.6566 171.6833 14.33509575175309
CZ-4B R/B               
1 28059U 03049C   25162.81787116  .00000281  00000+0  76515-4 0  9993
2 28059  98.6587 142.6441 0048059 339.8138  20.1156 14.54684526147217
